{
  "type": "FeatureCollection",
  "features": [
    {
      "type": "Feature",
      "properties": {
        "norad_id": 66800,
        "name": "STARLINK-35996",
        "group": "last-30-days",
        "lat": 31.201085652379856,
        "lon": -142.68889496948634,
        "alt_km": 410.90203623336583,
        "timestamp": "2025-12-25T07:00:32.764115+00:00",
        "meta_object_name": "STARLINK-35996",
        "meta_object_id": "2025-278K",
        "meta_epoch": "2025-12-24T22:00:03.000096",
        "meta_mean_motion": 15.5055859,
        "meta_eccentricity": 0.00015796,
        "meta_inclination": 43.0003,
        "meta_ra_of_asc_node": 178.9703,
        "meta_arg_of_pericenter": 270.8054,
        "meta_mean_anomaly": 201.0012,
        "meta_ephemeris_type": 0,
        "meta_classification_type": "U",
        "meta_norad_cat_id": 66800,
        "meta_element_set_no": 999,
        "meta_rev_at_epoch": 470,
        "meta_bstar": -2.0841836e-05,
        "meta_mean_motion_dot": -1.563e-05,
        "meta_mean_motion_ddot": 0,
        "tle_line1": "1 66800U 25278K   25358.91670139 -.00001563  00000+0 -20842-4 0  9999",
        "tle_line2": "2 66800  43.0003 178.9703 0001579 270.8054 201.0012 15.50558590  4705"
      },
      "geometry": {
        "type": "Point",
        "coordinates": [
          -142.68889496948634,
          31.201085652379856
        ]
      }
    },
    {
      "type": "Feature",
      "properties": {
        "norad_id": 66801,
        "name": "STARLINK-36080",
        "group": "last-30-days",
        "lat": 35.776278887487905,
        "lon": -132.60071971254087,
        "alt_km": 410.52949906633876,
        "timestamp": "2025-12-25T07:00:32.764129+00:00",
        "meta_object_name": "STARLINK-36080",
        "meta_object_id": "2025-278L",
        "meta_epoch": "2025-12-24T22:00:03.000096",
        "meta_mean_motion": 15.50497135,
        "meta_eccentricity": 0.00021211,
        "meta_inclination": 43.0004,
        "meta_ra_of_asc_node": 178.9454,
        "meta_arg_of_pericenter": 269.6147,
        "meta_mean_anomaly": 211.7964,
        "meta_ephemeris_type": 0,
        "meta_classification_type": "U",
        "meta_norad_cat_id": 66801,
        "meta_element_set_no": 999,
        "meta_rev_at_epoch": 491,
        "meta_bstar": 0.0018128789,
        "meta_mean_motion_dot": 0.00107168,
        "meta_mean_motion_ddot": 0,
        "tle_line1": "1 66801U 25278L   25358.91670139  .00107168  00000+0  18129-2 0  9999",
        "tle_line2": "2 66801  43.0004 178.9454 0002121 269.6147 211.7964 15.50497135  4917"
      },
      "geometry": {
        "type": "Point",
        "coordinates": [
          -132.60071971254087,
          35.776278887487905
        ]
      }
    },
    {
      "type": "Feature",
      "properties": {
        "norad_id": 66802,
        "name": "STARLINK-35604",
        "group": "last-30-days",
        "lat": 30.189606001454894,
        "lon": -144.58872747944898,
        "alt_km": 411.1541565761654,
        "timestamp": "2025-12-25T07:00:32.764140+00:00",
        "meta_object_name": "STARLINK-35604",
        "meta_object_id": "2025-278M",
        "meta_epoch": "2025-12-24T22:00:03.000096",
        "meta_mean_motion": 15.50491337,
        "meta_eccentricity": 0.00020576,
        "meta_inclination": 43.0004,
        "meta_ra_of_asc_node": 178.9755,
        "meta_arg_of_pericenter": 271.8983,
        "meta_mean_anomaly": 198.0082,
        "meta_ephemeris_type": 0,
        "meta_classification_type": "U",
        "meta_norad_cat_id": 66802,
        "meta_element_set_no": 999,
        "meta_rev_at_epoch": 491,
        "meta_bstar": 0.0021188944,
        "meta_mean_motion_dot": 0.00125587,
        "meta_mean_motion_ddot": 0,
        "tle_line1": "1 66802U 25278M   25358.91670139  .00125587  00000+0  21189-2 0  9995",
        "tle_line2": "2 66802  43.0004 178.9755 0002057 271.8983 198.0082 15.50491337  4919"
      },
      "geometry": {
        "type": "Point",
        "coordinates": [
          -144.58872747944898,
          30.189606001454894
        ]
      }
    },
    {
      "type": "Feature",
      "properties": {
        "norad_id": 66803,
        "name": "STARLINK-35565",
        "group": "last-30-days",
        "lat": 24.31417841270946,
        "lon": -154.1923361950896,
        "alt_km": 429.15515257661355,
        "timestamp": "2025-12-25T07:00:32.764150+00:00",
        "meta_object_name": "STARLINK-35565",
        "meta_object_id": "2025-278N",
        "meta_epoch": "2025-12-24T22:00:03.000096",
        "meta_mean_motion": 15.46280359,
        "meta_eccentricity": 0.00017211,
        "meta_inclination": 43.0004,
        "meta_ra_of_asc_node": 178.984,
        "meta_arg_of_pericenter": 284.1195,
        "meta_mean_anomaly": 182.3011,
        "meta_ephemeris_type": 0,
        "meta_classification_type": "U",
        "meta_norad_cat_id": 66803,
        "meta_element_set_no": 999,
        "meta_rev_at_epoch": 500,
        "meta_bstar": -0.044330512,
        "meta_mean_motion_dot": -0.01996122,
        "meta_mean_motion_ddot": 0,
        "tle_line1": "1 66803U 25278N   25358.91670139 -.01996122  00000+0 -44331-1 0  9993",
        "tle_line2": "2 66803  43.0004 178.9840 0001721 284.1195 182.3011 15.46280359  5008"
      },
      "geometry": {
        "type": "Point",
        "coordinates": [
          -154.1923361950896,
          24.31417841270946
        ]
      }
    },
    {
      "type": "Feature",
      "properties": {
        "norad_id": 66804,
        "name": "STARLINK-36038",
        "group": "last-30-days",
        "lat": 27.880503809374083,
        "lon": -148.61907795771708,
        "alt_km": 424.8549908179666,
        "timestamp": "2025-12-25T07:00:32.764162+00:00",
        "meta_object_name": "STARLINK-36038",
        "meta_object_id": "2025-278P",
        "meta_epoch": "2025-12-24T22:00:03.000096",
        "meta_mean_motion": 15.47361784,
        "meta_eccentricity": 0.0001627,
        "meta_inclination": 43.0003,
        "meta_ra_of_asc_node": 178.9724,
        "meta_arg_of_pericenter": 284.6392,
        "meta_mean_anomaly": 186.3247,
        "meta_ephemeris_type": 0,
        "meta_classification_type": "U",
        "meta_norad_cat_id": 66804,
        "meta_element_set_no": 999,
        "meta_rev_at_epoch": 491,
        "meta_bstar": -0.037132275,
        "meta_mean_motion_dot": -0.01732055,
        "meta_mean_motion_ddot": 0,
        "tle_line1": "1 66804U 25278P   25358.91670139 -.01732055  00000+0 -37132-1 0  9998",
        "tle_line2": "2 66804  43.0003 178.9724 0001627 284.6392 186.3247 15.47361784  4915"
      },
      "geometry": {
        "type": "Point",
        "coordinates": [
          -148.61907795771708,
          27.880503809374083
        ]
      }
    },
    {
      "type": "Feature",
      "properties": {
        "norad_id": 66805,
        "name": "STARLINK-36049",
        "group": "last-30-days",
        "lat": 34.223101599137664,
        "lon": -136.36184738121185,
        "alt_km": 416.3770585412385,
        "timestamp": "2025-12-25T07:00:32.764173+00:00",
        "meta_object_name": "STARLINK-36049",
        "meta_object_id": "2025-278Q",
        "meta_epoch": "2025-12-24T22:00:03.000096",
        "meta_mean_motion": 15.50296056,
        "meta_eccentricity": 0.00016295,
        "meta_inclination": 43.0002,
        "meta_ra_of_asc_node": 178.9499,
        "meta_arg_of_pericenter": 276.0013,
        "meta_mean_anomaly": 203.4237,
        "meta_ephemeris_type": 0,
        "meta_classification_type": "U",
        "meta_norad_cat_id": 66805,
        "meta_element_set_no": 999,
        "meta_rev_at_epoch": 491,
        "meta_bstar": -0.039473353,
        "meta_mean_motion_dot": -0.02042728,
        "meta_mean_motion_ddot": 0,
        "tle_line1": "1 66805U 25278Q   25358.91670139 -.02042728  00000+0 -39473-1 0  9991",
        "tle_line2": "2 66805  43.0002 178.9499 0001629 276.0013 203.4237 15.50296056  4914"
      },
      "geometry": {
        "type": "Point",
        "coordinates": [
          -136.36184738121185,
          34.223101599137664
        ]
      }
    },
    {
      "type": "Feature",
      "properties": {
        "norad_id": 66806,
        "name": "STARLINK-36069",
        "group": "last-30-days",
        "lat": 34.048978326728786,
        "lon": -136.75740676197614,
        "alt_km": 410.6747228577851,
        "timestamp": "2025-12-25T07:00:32.764183+00:00",
        "meta_object_name": "STARLINK-36069",
        "meta_object_id": "2025-278R",
        "meta_epoch": "2025-12-24T22:00:03.000096",
        "meta_mean_motion": 15.50487002,
        "meta_eccentricity": 0.00021267,
        "meta_inclination": 43.0004,
        "meta_ra_of_asc_node": 178.9559,
        "meta_arg_of_pericenter": 270.2581,
        "meta_mean_anomaly": 207.3198,
        "meta_ephemeris_type": 0,
        "meta_classification_type": "U",
        "meta_norad_cat_id": 66806,
        "meta_element_set_no": 999,
        "meta_rev_at_epoch": 470,
        "meta_bstar": 0.0025399547,
        "meta_mean_motion_dot": 0.00151083,
        "meta_mean_motion_ddot": 0,
        "tle_line1": "1 66806U 25278R   25358.91670139  .00151083  00000+0  25400-2 0  9999",
        "tle_line2": "2 66806  43.0004 178.9559 0002126 270.2581 207.3198 15.50487002  4702"
      },
      "geometry": {
        "type": "Point",
        "coordinates": [
          -136.75740676197614,
          34.048978326728786
        ]
      }
    }
  ]
}